NORAD_CAT_ID,OBJECT_NAME,OBJECT_TYPE,EPOCH,MEAN_MOTION,ECCENTRICITY,INCLINATION,RA_OF_ASC_NODE,ARG_OF_PERICENTER,MEAN_ANOMALY,BSTAR,MEAN_MOTION_DOT,MEAN_MOTION_DDOT,TLE_LINE0,TLE_LINE1,TLE_LINE2,SEMIMAJOR_AXIS,PERIOD,APOGEE,PERIGEE,DECAYED
51890.0,STARLINK-3519,PAYLOAD,2023-02-06 08:22:46,15.08846264,0.0001372,53.2152,19.9548,88.8709,271.2441,0.00015154,2.125e-05,0.0,0 STARLINK-3519,1 51890U 22022AQ  23037.34914766  .00002125  00000-0  15154-3 0  9995,2 51890  53.2152  19.9548 0001372  88.8709 271.2441 15.08846264 53050,6917.861,95.437,540.675,538.777,0.0
51890.0,STARLINK-3519,PAYLOAD,2023-02-07 08:13:32,15.08868828,0.0001375,53.2152,15.4946,90.4659,269.6491,0.00063954,9.913e-05,0.0,0 STARLINK-3519,1 51890U 22022AQ  23038.34273810  .00009913  00000-0  63954-3 0  9997,2 51890  53.2152  15.4946 0001375  90.4659 269.6491 15.08868828 53202,6917.792,95.436,540.608,538.706,0.0
51890.0,STARLINK-3519,PAYLOAD,2023-02-08 04:53:33,15.08855344,0.0001141,53.2158,11.6294,90.2072,269.905,0.00025587,3.788e-05,0.0,0 STARLINK-3519,1 51890U 22022AQ  23039.20385840  .00003788  00000-0  25587-3 0  9994,2 51890  53.2158  11.6294 0001141  90.2072 269.9050 15.08855344 53337,6917.833,95.437,540.488,538.909,0.0
51890.0,STARLINK-3519,PAYLOAD,2023-02-08 09:39:42,15.0887028,0.0001106,53.2159,10.7379,97.505,262.6068,0.00078094,0.00012173,0.0,0 STARLINK-3519,1 51890U 22022AQ  23039.40257429  .00012173  00000-0  78094-3 0  9996,2 51890  53.2159  10.7379 0001106  97.5050 262.6068 15.08870280 53367,6917.788,95.436,540.418,538.888,0.0
51890.0,STARLINK-3519,PAYLOAD,2023-02-09 04:44:21,15.08844055,9.53e-05,53.2162,7.1702,78.2595,281.8504,0.0021853,0.00034666,0.0,0 STARLINK-3519,1 51890U 22022AQ  23040.19746958  .00034666  00000-0  21853-2 0  9995,2 51890  53.2162   7.1702 0000953  78.2595 281.8504 15.08844055 53482,6917.868,95.437,540.392,539.074,0.0
51890.0,STARLINK-3519,PAYLOAD,2023-02-09 09:30:30,15.08858777,9.45e-05,53.2162,6.2774,76.7954,283.3144,0.0025512,0.00040569,0.0,0 STARLINK-3519,1 51890U 22022AQ  23040.39618818  .00040569  00000-0  25512-2 0  9995,2 51890  53.2162   6.2774 0000945  76.7954 283.3144 15.08858777 53511,6917.823,95.436,540.342,539.034,0.0
51890.0,STARLINK-3519,PAYLOAD,2023-02-10 04:35:08,15.08869255,9.79e-05,53.2161,2.7091,100.4076,259.7027,0.0029168,0.00046476,0.0,0 STARLINK-3519,1 51890U 22022AQ  23041.19107346  .00046476  00000-0  29168-2 0  9997,2 51890  53.2161   2.7091 0000979 100.4076 259.7027 15.08869255 53633,6917.791,95.436,540.333,538.979,0.0
51890.0,STARLINK-3519,PAYLOAD,2023-02-10 23:39:46,15.08873778,2.27e-05,53.216,359.1417,41.1977,318.9032,0.0019117,0.00030296,0.0,0 STARLINK-3519,1 51890U 22022AQ  23041.98595078  .00030296  00000-0  19117-2 0  9993,2 51890  53.2160 359.1417 0000227  41.1977 318.9032 15.08873778 53752,6917.777,95.435,539.799,539.485,0.0
51890.0,STARLINK-3519,PAYLOAD,2023-02-11 04:25:55,15.08889514,0.0001277,53.2156,358.249,123.9381,236.1732,0.0024165,0.00038433,0.0,0 STARLINK-3519,1 51890U 22022AQ  23042.18466475  .00038433  00000-0  24165-2 0  9994,2 51890  53.2156 358.2490 0001277 123.9381 236.1732 15.08889514 53788,6917.729,95.434,540.477,538.711,0.0
51890.0,STARLINK-3519,PAYLOAD,2023-02-12 05:52:05,15.08862118,0.0002183,53.2153,353.4908,70.1132,290.0095,0.0016022,0.00025319,0.0,0 STARLINK-3519,1 51890U 22022AQ  23043.24451208  .00025319  00000-0  16022-2 0  9992,2 51890  53.2153 353.4908 0002183  70.1132 290.0095 15.08862118 53940,6917.813,95.436,541.188,538.168,0.0
51890.0,STARLINK-3519,PAYLOAD,2023-02-12 13:49:01,15.08858734,0.0001705,53.2161,352.0057,67.8505,292.2668,0.00092119,0.00014411,0.0,0 STARLINK-3519,1 51890U 22022AQ  23043.57570653  .00014411  00000-0  92119-3 0  9997,2 51890  53.2161 352.0057 0001705  67.8505 292.2668 15.08858734 53999,6917.823,95.436,540.868,538.509,0.0
51890.0,STARLINK-3519,PAYLOAD,2023-02-13 05:42:53,15.0881646,0.0001217,53.2143,349.0286,103.9011,256.2117,0.00049655,7.618e-05,0.0,0 STARLINK-3519,1 51890U 22022AQ  23044.23811749  .00007618  00000-0  49655-3 0  9993,2 51890  53.2143 349.0286 0001217 103.9011 256.2117 15.08816460 54092,6917.952,95.439,540.659,538.975,0.0
51890.0,STARLINK-3519,PAYLOAD,2023-02-13 13:39:49,15.08830107,0.0001202,53.216,347.5441,83.9425,276.1704,0.00061612,9.529e-05,0.0,0 STARLINK-3519,1 51890U 22022AQ  23044.56931946  .00009529  00000-0  61612-3 0  9991,2 51890  53.2160 347.5441 0001202  83.9425 276.1704 15.08830107 54140,6917.911,95.438,540.607,538.944,0.0
51890.0,STARLINK-3519,PAYLOAD,2023-02-14 02:22:53,15.08872467,9.89e-05,53.2153,345.1645,76.6779,283.4324,0.0017288,0.00027357,0.0,0 STARLINK-3519,1 51890U 22022AQ  23045.09923052  .00027357  00000-0  17288-2 0  9997,2 51890  53.2153 345.1645 0000989  76.6779 283.4324 15.08872467 54227,6917.781,95.436,540.33,538.962,0.0
51890.0,STARLINK-3519,PAYLOAD,2023-02-14 13:30:35,15.08835293,0.000366,53.2152,343.0831,86.6288,273.5123,0.0013039,0.00020523,0.0,0 STARLINK-3519,1 51890U 22022AQ  23045.56291548  .00020523  00000-0  13039-2 0  9995,2 51890  53.2152 343.0831 0003660  86.6288 273.5123 15.08835293 54295,6917.895,95.438,542.292,537.228,0.0
51890.0,STARLINK-3519,PAYLOAD,2023-02-15 02:13:40,15.08837164,0.0001236,53.2152,340.7036,110.2778,249.8347,0.0019051,0.00030159,0.0,0 STARLINK-3519,1 51890U 22022AQ  23046.09283418  .00030159  00000-0  19051-2 0  9997,2 51890  53.2152 340.7036 0001236 110.2778 249.8347 15.08837164 54373,6917.889,95.438,540.609,538.899,0.0
51890.0,STARLINK-3519,PAYLOAD,2023-02-15 22:53:42,15.0887096,0.0001229,53.2158,336.8371,123.5948,236.5161,0.0029655,0.00047265,0.0,0 STARLINK-3519,1 51890U 22022AQ  23046.95395910  .00047265  00000-0  29655-2 0  9990,2 51890  53.2158 336.8371 0001229 123.5948 236.5161 15.08870960 54508,6917.786,95.436,540.501,538.801,0.0
51890.0,STARLINK-3519,PAYLOAD,2023-02-16 11:36:46,15.08871703,0.0001428,53.216,334.4586,52.1917,307.9204,0.0025882,0.0004118,0.0,0 STARLINK-3519,1 51890U 22022AQ  23047.48387666  .00041180  00000-0  25882-2 0  9996,2 51890  53.2160 334.4586 0001428  52.1917 307.9204 15.08871703 54582,6917.783,95.436,540.636,538.661,0.0
51890.0,STARLINK-3519,PAYLOAD,2023-02-16 22:44:29,15.08828412,0.0001028,53.2163,332.3776,62.0564,298.0532,0.0015042,0.00023725,0.0,0 STARLINK-3519,1 51890U 22022AQ  23047.94756274  .00023725  00000-0  15042-2 0  9994,2 51890  53.2163 332.3776 0001028  62.0564 298.0532 15.08828412 54658,6917.916,95.438,540.492,539.07,0.0
51890.0,STARLINK-3519,PAYLOAD,2023-02-17 11:27:35,15.08822209,0.0001329,53.2162,329.9991,77.326,282.7881,0.0019407,0.00030718,0.0,0 STARLINK-3519,1 51890U 22022AQ  23048.47749059  .00030718  00000-0  19407-2 0  9995,2 51890  53.2162 329.9991 0001329  77.3260 282.7881 15.08822209 54738,6917.935,95.439,540.719,538.88,0.0
51890.0,STARLINK-3519,PAYLOAD,2023-02-18 00:10:41,15.08815391,0.0001167,53.2156,327.6239,99.707,260.4054,0.00069358,0.0001076,0.0,0 STARLINK-3519,1 51890U 22022AQ  23049.00742093  .00010760  00000-0  69358-3 0  9992,2 51890  53.2156 327.6239 0001167  99.7070 260.4054 15.08815391 54816,6917.956,95.439,540.628,539.013,0.0
51890.0,STARLINK-3519,PAYLOAD,2023-02-18 11:18:23,15.08843123,0.0001263,53.2164,325.5378,83.2253,276.8883,0.0014378,0.00022671,0.0,0 STARLINK-3519,1 51890U 22022AQ  23049.47110252  .00022671  00000-0  14378-2 0  9994,2 51890  53.2164 325.5378 0001263  83.2253 276.8883 15.08843123 54886,6917.871,95.437,540.61,538.862,0.0
51890.0,STARLINK-3519,PAYLOAD,2023-02-19 11:09:09,15.08872763,0.0001444,53.2153,321.0782,71.439,288.6759,0.0013159,0.00020735,0.0,0 STARLINK-3519,1 51890U 22022AQ  23050.46468846  .00020735  00000-0  13159-2 0  9995,2 51890  53.2153 321.0782 0001444  71.4390 288.6759 15.08872763 55039,6917.78,95.435,540.644,538.646,0.0
51890.0,STARLINK-3519,PAYLOAD,2023-02-19 23:52:13,15.0885834,0.0001434,53.2146,318.6992,82.0169,278.0986,0.0016032,0.00025332,0.0,0 STARLINK-3519,1 51890U 22022AQ  23050.99460639  .00025332  00000-0  16032-2 0  9996,2 51890  53.2146 318.6992 0001434  82.0169 278.0986 15.08858340 55116,6917.824,95.436,540.681,538.697,0.0
51890.0,STARLINK-3519,PAYLOAD,2023-02-20 10:59:55,15.08858579,0.0001356,53.2149,316.6167,90.3598,269.7549,0.0010815,0.00016975,0.0,0 STARLINK-3519,1 51890U 22022AQ  23051.45828403  .00016975  00000-0  10815-2 0  9991,2 51890  53.2149 316.6167 0001356  90.3598 269.7549 15.08858579 55185,6917.824,95.436,540.627,538.751,0.0
51890.0,STARLINK-3519,PAYLOAD,2023-02-20 22:07:37,15.08848036,0.0001337,53.2151,314.5361,93.6193,266.4952,0.0011178,0.0001755,0.0,0 STARLINK-3519,1 51890U 22022AQ  23051.92196436  .00017550  00000-0  11178-2 0  9990,2 51890  53.2151 314.5361 0001337  93.6193 266.4952 15.08848036 55254,6917.856,95.437,540.646,538.796,0.0
51890.0,STARLINK-3519,PAYLOAD,2023-02-21 02:53:47,15.08847198,0.0001565,53.2153,313.6428,93.0625,267.0546,0.0002478,3.659e-05,0.0,0 STARLINK-3519,1 51890U 22022AQ  23052.12068340  .00003659  00000-0  24780-3 0  9994,2 51890  53.2153 313.6428 0001565  93.0625 267.0546 15.08847198 55284,6917.858,95.437,540.806,538.641,0.0
51890.0,STARLINK-3519,PAYLOAD,2023-02-21 21:58:24,15.08847334,0.0001622,53.2149,310.0753,88.2706,271.8472,0.0003215,4.833e-05,0.0,0 STARLINK-3519,1 51890U 22022AQ  23052.91556353  .00004833  00000-0  32150-3 0  9992,2 51890  53.2149 310.0753 0001622  88.2706 271.8472 15.08847334 55408,6917.858,95.437,540.845,538.601,0.0
51890.0,STARLINK-3519,PAYLOAD,2023-02-22 02:44:33,15.08855633,0.0001597,53.2145,309.1807,85.5401,274.5774,0.0004192,6.393e-05,0.0,0 STARLINK-3519,1 51890U 22022AQ  23053.11427995  .00006393  00000-0  41920-3 0  9992,2 51890  53.2145 309.1807 0001597  85.5401 274.5774 15.08855633 55435,6917.833,95.437,540.802,538.593,0.0
51890.0,STARLINK-3519,PAYLOAD,2023-02-22 21:49:12,15.088265,0.0001251,53.2146,305.6144,90.437,269.6765,-0.00010316,-1.929e-05,0.0,0 STARLINK-3519,1 51890U 22022AQ  23053.90917340 -.00001929  00000-0 -10316-3 0  9994,2 51890  53.2146 305.6144 0001251  90.4370 269.6765 15.08826500 55557,6917.922,95.438,540.652,538.921,0.0
